NORAD_CAT_ID,OBJECT_NAME,OBJECT_TYPE,EPOCH,MEAN_MOTION,ECCENTRICITY,INCLINATION,RA_OF_ASC_NODE,ARG_OF_PERICENTER,MEAN_ANOMALY,BSTAR,MEAN_MOTION_DOT,MEAN_MOTION_DDOT,TLE_LINE0,TLE_LINE1,TLE_LINE2,SEMIMAJOR_AXIS,PERIOD,APOGEE,PERIGEE,DECAYED
51124.0,STARLINK-3389,PAYLOAD,2022-11-12 07:24:39,15.08847895,0.0002348,53.2179,346.2092,36.9397,323.1757,0.00016798,2.387e-05,0.0,0 STARLINK-3389,1 51124U 22005W   22316.30879575  .00002387  00000-0  16798-3 0  9994,2 51124  53.2179 346.2092 0002348  36.9397 323.1757 15.08847895 46678,6917.856,95.437,541.346,538.097,0.0
51124.0,STARLINK-3389,PAYLOAD,2022-11-12 18:32:21,15.08845497,0.0002323,53.2182,344.1291,40.2361,319.8802,0.00018467,2.652e-05,0.0,0 STARLINK-3389,1 51124U 22005W   22316.77247648  .00002652  00000-0  18467-3 0  9995,2 51124  53.2182 344.1291 0002323  40.2361 319.8802 15.08845497 45636,6917.864000000001,95.437,541.336,538.122,0.0
51124.0,STARLINK-3389,PAYLOAD,2022-11-13 10:26:13,15.08832412,0.0002277,53.2185,341.1559,35.5731,324.5413,-7.4024e-05,-1.466e-05,0.0,0 STARLINK-3389,1 51124U 22005W   22317.43488137 -.00001466  00000-0 -74024-4 0  9995,2 51124  53.2185 341.1559 0002277  35.5731 324.5413 15.08832412 46847,6917.904,95.438,541.344,538.193,0.0
51124.0,STARLINK-3389,PAYLOAD,2022-11-14 10:17:01,15.08829863,0.0002215,53.2181,336.6938,34.2821,325.8313,-3.135e-05,-7.87e-06,0.0,0 STARLINK-3389,1 51124U 22005W   22318.42849142 -.00000787  00000-0 -31350-4 0  9992,2 51124  53.2181 336.6938 0002215  34.2821 325.8313 15.08829863 45883,6917.911,95.438,541.309,538.244,0.0
51124.0,STARLINK-3389,PAYLOAD,2022-11-14 18:13:57,15.08836078,0.0002251,53.2179,335.207,31.95300000000001,328.1598,7.4388e-05,8.96e-06,0.0,0 STARLINK-3389,1 51124U 22005W   22318.75969065  .00000896  00000-0  74388-4 0  9992,2 51124  53.2179 335.2070 0002251  31.9530 328.1598 15.08836078 47040,6917.892,95.438,541.315,538.2,0.0
51124.0,STARLINK-3389,PAYLOAD,2022-11-15 08:32:25,15.08843762,0.0002152,53.2177,332.5314,33.7827,326.3302,0.00036321,5.498e-05,0.0,0 STARLINK-3389,1 51124U 22005W   22319.35585431  .00005498  00000-0  36321-3 0  9997,2 51124  53.2177 332.5314 0002152  33.7827 326.3302 15.08843762 46026,6917.869000000002,95.437,541.2230000000002,538.245,0.0
51124.0,STARLINK-3389,PAYLOAD,2022-11-15 18:04:44,15.08839273,0.000225,53.2176,330.7464,34.6923,325.4215,0.00017366,2.477e-05,0.0,0 STARLINK-3389,1 51124U 22005W   22319.75329573  .00002477  00000-0  17366-3 0  9996,2 51124  53.2176 330.7464 0002250  34.6923 325.4215 15.08839273 46088,6917.8830000000025,95.438,541.304,538.191,0.0
51124.0,STARLINK-3389,PAYLOAD,2022-11-16 02:01:40,15.08849299,0.0002396,53.2171,329.2598,36.0021,324.1132,0.00050919,7.827e-05,0.0,0 STARLINK-3389,1 51124U 22005W   22320.08449414  .00007827  00000-0  50919-3 0  9996,2 51124  53.2171 329.2598 0002396  36.0021 324.1132 15.08849299 47242,6917.852,95.437,541.374,538.059,0.0
51124.0,STARLINK-3389,PAYLOAD,2022-11-16 08:23:12,15.08853955,0.0002368,53.2171,328.0709,36.2539,323.8614,0.00061229,9.474e-05,0.0,0 STARLINK-3389,1 51124U 22005W   22320.34945238  .00009474  00000-0  61229-3 0  9996,2 51124  53.2171 328.0709 0002368  36.2539 323.8614 15.08853955 46174,6917.8380000000025,95.437,541.341,538.065,0.0
51124.0,STARLINK-3389,PAYLOAD,2022-11-16 17:55:31,15.08841527,0.0002248,53.2169,326.2862,40.5486,319.5674,0.0002935,4.386e-05,0.0,0 STARLINK-3389,1 51124U 22005W   22320.74689555  .00004386  00000-0  29350-3 0  9993,2 51124  53.2169 326.2862 0002248  40.5486 319.5674 15.08841527 47347,6917.876,95.437,541.2959999999998,538.186,0.0
51124.0,STARLINK-3389,PAYLOAD,2022-11-17 13:00:09,15.08842616,0.0002539,53.217,322.7185,36.0251,324.0912,0.00020443,2.967e-05,0.0,0 STARLINK-3389,1 51124U 22005W   22321.54177614  .00002967  00000-0  20443-3 0  9997,2 51124  53.2170 322.7185 0002539  36.0251 324.0912 15.08842616 46357,6917.871999999999,95.437,541.494,537.981,0.0
51124.0,STARLINK-3389,PAYLOAD,2022-11-17 17:46:18,15.08841561,0.0002543,53.217,321.8264,36.2599,323.8565,0.00020086,2.9100000000000013e-05,0.0,0 STARLINK-3389,1 51124U 22005W   22321.74049681  .00002910  00000-0  20086-3 0  9992,2 51124  53.2170 321.8264 0002543  36.2599 323.8565 15.08841561 47492,6917.876,95.437,541.5,537.981,0.0
51124.0,STARLINK-3389,PAYLOAD,2022-11-18 11:15:33,15.08844752,0.0002324,53.2178,318.5554,30.572,329.5407,0.00016498,2.339e-05,0.0,0 STARLINK-3389,1 51124U 22005W   22322.46913435  .00002339  00000-0  16498-3 0  9996,2 51124  53.2178 318.5554 0002324  30.5720 329.5407 15.08844752 46497,6917.866,95.437,541.339,538.123,0.0
51124.0,STARLINK-3389,PAYLOAD,2022-11-18 23:58:38,15.0884465,0.0002461,53.2178,316.1773,30.1494,329.9639,0.00014581,2.033e-05,0.0,0 STARLINK-3389,1 51124U 22005W   22322.99905449  .00002033  00000-0  14581-3 0  9992,2 51124  53.2178 316.1773 0002461  30.1494 329.9639 15.08844650 47680,6917.866,95.437,541.434,538.029,0.0
51124.0,STARLINK-3389,PAYLOAD,2022-11-19 09:30:56,15.08849989,0.0002426,53.2173,314.3936,31.0396,329.0739,0.00023582,3.468e-05,0.0,0 STARLINK-3389,1 51124U 22005W   22323.39649160  .00003468  00000-0  23582-3 0  9996,2 51124  53.2173 314.3936 0002426  31.0396 329.0739 15.08849989 46634,6917.85,95.437,541.393,538.0369999999998,0.0
51124.0,STARLINK-3389,PAYLOAD,2022-11-20 03:00:11,15.08847955,0.0002455,53.2175,311.1214,37.4815,322.6348,0.00015052,2.109e-05,0.0,0 STARLINK-3389,1 51124U 22005W   22324.12513149  .00002109  00000-0  15052-3 0  9999,2 51124  53.2175 311.1214 0002455  37.4815 322.6348 15.08847955 47859,6917.856,95.437,541.419,538.023,0.0
51124.0,STARLINK-3389,PAYLOAD,2022-11-20 09:21:44,15.08845403,0.0002486,53.218,309.9322,36.8135,323.3028,0.00012822,1.753e-05,0.0,0 STARLINK-3389,1 51124U 22005W   22324.39009280  .00001753  00000-0  12822-3 0  9990,2 51124  53.2180 309.9322 0002486  36.8135 323.3028 15.08845403 46782,6917.864000000001,95.437,541.4490000000002,538.009,0.0
51124.0,STARLINK-3389,PAYLOAD,2022-11-21 02:50:58,15.08844226,0.0002468,53.2177,306.6612,35.4322,324.6834,5.7775e-05,6.31e-06,0.0,0 STARLINK-3389,1 51124U 22005W   22325.11873193  .00000631  00000-0  57775-4 0  9994,2 51124  53.2177 306.6612 0002468  35.4322 324.6834 15.08844226 48005,6917.8669999999975,95.437,541.44,538.025,0.0
51124.0,STARLINK-3389,PAYLOAD,2022-11-21 07:37:08,15.08833836,0.0002462,53.2174,305.7684,35.9059,324.2098,-9.403e-05,-1.784e-05,0.0,0 STARLINK-3389,1 51124U 22005W   22325.31745734 -.00001784  00000-0 -94030-4 0  9992,2 51124  53.2174 305.7684 0002462  35.9059 324.2098 15.08833836 48033,6917.899,95.438,541.467,538.061,0.0
51124.0,STARLINK-3389,PAYLOAD,2022-11-21 21:55:36,15.08832113,0.000249,53.2176,303.092,37.3569,322.7595,-1.3869e-05,-5.09e-06,0.0,0 STARLINK-3389,1 51124U 22005W   22325.91362196 -.00000509  00000-0 -13869-4 0  9990,2 51124  53.2176 303.0920 0002490  37.3569 322.7595 15.08832113 47011,6917.904,95.438,541.492,538.047,0.0
51124.0,STARLINK-3389,PAYLOAD,2022-11-22 04:17:10,15.08810929,0.0002426,53.2177,301.9033,38.4383,321.6782,-0.0003377,-5.655e-05,0.0,0 STARLINK-3389,1 51124U 22005W   22326.17859440 -.00005655  00000-0 -33770-3 0  9991,2 51124  53.2177 301.9033 0002426  38.4383 321.6782 15.08810929 48163,6917.969,95.439,541.513,538.156,0.0
51124.0,STARLINK-3389,PAYLOAD,2022-11-22 07:27:56,15.08812696,0.0002383,53.2177,301.308,36.7373,323.3782,-0.00030546,-5.143e-05,0.0,0 STARLINK-3389,1 51124U 22005W   22326.31107551 -.00005143  00000-0 -30546-3 0  9996,2 51124  53.2177 301.3080 0002383  36.7373 323.3782 15.08812696 47072,6917.964,95.439,541.477,538.18,0.0
51124.0,STARLINK-3389,PAYLOAD,2022-11-22 21:46:25,15.08828756,0.0002569,53.2173,298.6317,33.0045,327.1107,5.325600000000001e-05,5.59e-06,0.0,0 STARLINK-3389,1 51124U 22005W   22326.90723439  .00000559  00000-0  53256-4 0  9998,2 51124  53.2173 298.6317 0002569  33.0045 327.1107 15.08828756 47168,6917.915,95.438,541.557,538.003,0.0
51124.0,STARLINK-3389,PAYLOAD,2022-11-23 04:07:57,15.08835292,0.000248,53.2175,297.4422,38.1758,321.9409,0.00012229,1.658e-05,0.0,0 STARLINK-3389,1 51124U 22005W   22327.17219342  .00001658  00000-0  12229-3 0  9996,2 51124  53.2175 297.4422 0002480  38.1758 321.9409 15.08835292 48311,6917.895,95.438,541.475,538.044,0.0
51124.0,STARLINK-3389,PAYLOAD,2022-11-23 07:18:43,15.08839293,0.0002507,53.217,296.847,32.3565,327.7581,0.00019992,2.895e-05,0.0,0 STARLINK-3389,1 51124U 22005W   22327.30467148  .00002895  00000-0  19992-3 0  9998,2 51124  53.2170 296.8470 0002507  32.3565 327.7581 15.08839293 47223,6917.8830000000025,95.438,541.482,538.013,0.0
51124.0,STARLINK-3389,PAYLOAD,2022-11-23 15:15:39,15.08843585,0.0002417,53.2171,295.3603,34.3988,325.716,0.00047284,7.246e-05,0.0,0 STARLINK-3389,1 51124U 22005W   22327.63587368  .00007246  00000-0  47284-3 0  9991,2 51124  53.2171 295.3603 0002417  34.3988 325.7160 15.08843585 47272,6917.869000000002,95.437,541.406,538.062,0.0
51124.0,STARLINK-3389,PAYLOAD,2022-11-24 03:58:44,15.08867547,0.000249,53.2168,292.9812,37.8162,322.3004,0.00093255,0.00014596,0.0,0 STARLINK-3389,1 51124U 22005W   22328.16578821  .00014596  00000-0  93255-3 0  9999,2 51124  53.2168 292.9812 0002490  37.8162 322.3004 15.08867547 48462,6917.795999999999,95.436,541.384,537.939,0.0
51124.0,STARLINK-3389,PAYLOAD,2022-11-24 07:09:30,15.08863426,0.0002491,53.2169,292.3868,37.7104,322.4063,0.00064383,9.98e-05,0.0,0 STARLINK-3389,1 51124U 22005W   22328.29826705  .00009980  00000-0  64383-3 0  9991,2 51124  53.2169 292.3868 0002491  37.7104 322.4063 15.08863426 47371,6917.809,95.436,541.3969999999998,537.951,0.0
51124.0,STARLINK-3389,PAYLOAD,2022-11-24 21:27:58,15.08857049,0.0002621,53.2165,289.71,38.6883,321.4296,0.00031354,4.708e-05,0.0,0 STARLINK-3389,1 51124U 22005W   22328.89442358  .00004708  00000-0  31354-3 0  9990,2 51124  53.2165 289.7100 0002621  38.6883 321.4296 15.08857049 48579,6917.828,95.436,541.506,537.88,0.0
